start=new Date('2022-05-02T00:00:00.000Z').valueOf();
sats=[{"PERIOD":"95.593","ELEMENT_SET_NO":"999","NORAD_CAT_ID":"48586","EPOCH":"2022-05-01T20:37:02.872128","CLASSIFICATION_TYPE":"U","TIME_SYSTEM":"UTC","ARG_OF_PERICENTER":"72.3878","RCS_SIZE":"LARGE","APOAPSIS":"548.366","BSTAR":"0.00006449100000","RA_OF_ASC_NODE":"341.6252","MEAN_ELEMENT_THEORY":"SGP4","MEAN_MOTION":"15.06382496","SEMIMAJOR_AXIS":"6925.402","TLE_LINE1":"1 48586U 21041AK  22121.85906102  .00000679  00000-0  64491-4 0  9998","DECAY_DATE":null,"MEAN_MOTION_DOT":"0.00000679","SITE":"AFETR","PERIAPSIS":"546.168","TLE_LINE2":"2 48586  53.0546 341.6252 0001587  72.3878 287.7284 15.06382496 52868","COUNTRY_CODE":"US","EPHEMERIS_TYPE":"0","LAUNCH_DATE":"2021-05-15","GP_ID":"202474272","OBJECT_ID":"2021-041AK","OBJECT_NAME":"STARLINK-2241","MEAN_MOTION_DDOT":"0.0000000000000","INCLINATION":"53.0546","FILE":"3424759","REF_FRAME":"TEME","ECCENTRICITY":"0.00015870","REV_AT_EPOCH":"5286","MEAN_ANOMALY":"287.7284","OBJECT_TYPE":"PAYLOAD","CENTER_NAME":"EARTH"},{"OBJECT_ID":"2021-041AL","GP_ID":"202473030","INCLINATION":"53.0574","MEAN_MOTION_DDOT":"0.0000000000000","OBJECT_NAME":"STARLINK-2242","REF_FRAME":"TEME","FILE":"3424759","CENTER_NAME":"EARTH","MEAN_ANOMALY":"256.2031","OBJECT_TYPE":"PAYLOAD","REV_AT_EPOCH":"5286","ECCENTRICITY":"0.00014430","TLE_LINE1":"1 48587U 21041AL  22121.86274122  .00010185  00000-0  70158-3 0  9999","DECAY_DATE":null,"MEAN_MOTION_DOT":"0.00010185","COUNTRY_CODE":"US","EPHEMERIS_TYPE":"0","TLE_LINE2":"2 48587  53.0574 341.5852 0001443 103.9118 256.2031 15.06402963 52867","PERIAPSIS":"546.205","SITE":"AFETR","LAUNCH_DATE":"2021-05-15","APOAPSIS":"548.204","RCS_SIZE":"LARGE","ARG_OF_PERICENTER":"103.9118","TIME_SYSTEM":"UTC","RA_OF_ASC_NODE":"341.5852","BSTAR":"0.00070158000000","MEAN_MOTION":"15.06402963","MEAN_ELEMENT_THEORY":"SGP4","SEMIMAJOR_AXIS":"6925.339","NORAD_CAT_ID":"48587","ELEMENT_SET_NO":"999","PERIOD":"95.592","CLASSIFICATION_TYPE":"U","EPOCH":"2022-05-01T20:42:20.841408"},{"EPOCH":"2022-05-01T20:11:49.634880","CLASSIFICATION_TYPE":"U","ELEMENT_SET_NO":"999","PERIOD":"95.593","NORAD_CAT_ID":"48588","SEMIMAJOR_AXIS":"6925.380","MEAN_MOTION":"15.06389753","MEAN_ELEMENT_THEORY":"SGP4","RA_OF_ASC_NODE":"331.6979","BSTAR":"0.00014240000000","ARG_OF_PERICENTER":"78.5873","TIME_SYSTEM":"UTC","APOAPSIS":"548.247","RCS_SIZE":"LARGE","LAUNCH_DATE":"2021-05-15","TLE_LINE2":"2 48588  53.0544 331.6979 0001447  78.5873 281.5279 15.06389753 53007","PERIAPSIS":"546.243","SITE":"AFETR","EPHEMERIS_TYPE":"0","COUNTRY_CODE":"US","MEAN_MOTION_DOT":"0.00001840","DECAY_DATE":null,"TLE_LINE1":"1 48588U 21041AM  22121.84154670  .00001840  00000-0  14240-3 0  9991","REV_AT_EPOCH":"5300","ECCENTRICITY":"0.00014470","CENTER_NAME":"EARTH","MEAN_ANOMALY":"281.5279","OBJECT_TYPE":"PAYLOAD","FILE":"3424759","REF_FRAME":"TEME","MEAN_MOTION_DDOT":"0.0000000000000","OBJECT_NAME":"STARLINK-2244","INCLINATION":"53.0544","GP_ID":"202472780","OBJECT_ID":"2021-041AM"},{"PERIOD":"95.592","ELEMENT_SET_NO":"999","NORAD_CAT_ID":"48589","EPOCH":"2022-05-01T20:06:30.831840","CLASSIFICATION_TYPE":"U","BSTAR":"0.00020646000000","RA_OF_ASC_NODE":"331.7167","TIME_SYSTEM":"UTC","ARG_OF_PERICENTER":"77.8963","RCS_SIZE":"LARGE","APOAPSIS":"548.262","SEMIMAJOR_AXIS":"6925.362","MEAN_ELEMENT_THEORY":"SGP4","MEAN_MOTION":"15.06395470","MEAN_MOTION_DOT":"0.00002795","DECAY_DATE":null,"TLE_LINE1":"1 48589U 21041AN  22121.83785685  .00002795  00000-0  20646-3 0  9994","LAUNCH_DATE":"2021-05-15","SITE":"AFETR","PERIAPSIS":"546.193","TLE_LINE2":"2 48589  53.0564 331.7167 0001494  77.8963 282.2194 15.06395470 53001","EPHEMERIS_TYPE":"0","COUNTRY_CODE":"US","OBJECT_NAME":"STARLINK-2245","MEAN_MOTION_DDOT":"0.0000000000000","INCLINATION":"53.0564","GP_ID":"202473530","OBJECT_ID":"2021-041AN","ECCENTRICITY":"0.00014940","REV_AT_EPOCH":"5300","MEAN_ANOMALY":"282.2194","OBJECT_TYPE":"PAYLOAD","CENTER_NAME":"EARTH","FILE":"3424759","REF_FRAME":"TEME"},{"LAUNCH_DATE":"2021-05-15","EPHEMERIS_TYPE":"0","COUNTRY_CODE":"US","SITE":"AFETR","TLE_LINE2":"2 48591  53.0597 331.7746 0001441  75.6816 284.4333 15.06383842 53906","PERIAPSIS":"546.265","MEAN_MOTION_DOT":"-0.00000213","TLE_LINE1":"1 48591U 21041AQ  22121.82217685 -.00000213  00000-0  45704-5 0  9994","DECAY_DATE":null,"OBJECT_TYPE":"PAYLOAD","MEAN_ANOMALY":"284.4333","CENTER_NAME":"EARTH","ECCENTRICITY":"0.00014410","REV_AT_EPOCH":"5390","REF_FRAME":"TEME","FILE":"3424759","INCLINATION":"53.0597","OBJECT_NAME":"STARLINK-2248","MEAN_MOTION_DDOT":"0.0000000000000","OBJECT_ID":"2021-041AQ","GP_ID":"202473773","CLASSIFICATION_TYPE":"U","EPOCH":"2022-05-01T19:43:56.079840","NORAD_CAT_ID":"48591","PERIOD":"95.593","ELEMENT_SET_NO":"999","SEMIMAJOR_AXIS":"6925.398","MEAN_ELEMENT_THEORY":"SGP4","MEAN_MOTION":"15.06383842","BSTAR":"0.00000457040000","RA_OF_ASC_NODE":"331.7746","RCS_SIZE":"LARGE","APOAPSIS":"548.261","TIME_SYSTEM":"UTC","ARG_OF_PERICENTER":"75.6816"},{"CLASSIFICATION_TYPE":"U","EPOCH":"2022-05-01T21:30:07.201152","NORAD_CAT_ID":"48592","PERIOD":"95.593","ELEMENT_SET_NO":"999","MEAN_ELEMENT_THEORY":"SGP4","MEAN_MOTION":"15.06384661","SEMIMAJOR_AXIS":"6925.396","RCS_SIZE":"LARGE","APOAPSIS":"548.302","ARG_OF_PERICENTER":"85.2133","TIME_SYSTEM":"UTC","BSTAR":"0.00010775000000","RA_OF_ASC_NODE":"341.4603","COUNTRY_CODE":"US","EPHEMERIS_TYPE":"0","SITE":"AFETR","TLE_LINE2":"2 48592  53.0559 341.4603 0001504  85.2133 274.9027 15.06384661 52873","PERIAPSIS":"546.219","LAUNCH_DATE":"2021-05-15","DECAY_DATE":null,"TLE_LINE1":"1 48592U 21041AR  22121.89591668  .00001323  00000-0  10775-3 0  9998","MEAN_MOTION_DOT":"0.00001323","REF_FRAME":"TEME","FILE":"3424759","OBJECT_TYPE":"PAYLOAD","MEAN_ANOMALY":"274.9027","CENTER_NAME":"EARTH","ECCENTRICITY":"0.00015040","REV_AT_EPOCH":"5287","OBJECT_ID":"2021-041AR","GP_ID":"202472530","INCLINATION":"53.0559","OBJECT_NAME":"STARLINK-2249","MEAN_MOTION_DDOT":"0.0000000000000"},{"EPOCH":"2022-05-01T20:05:11.647104","CLASSIFICATION_TYPE":"U","ELEMENT_SET_NO":"999","PERIOD":"95.593","NORAD_CAT_ID":"48593","SEMIMAJOR_AXIS":"6925.394","MEAN_MOTION":"15.06385143","MEAN_ELEMENT_THEORY":"SGP4","RA_OF_ASC_NODE":"341.7276","BSTAR":"0.00005152700000","TIME_SYSTEM":"UTC","ARG_OF_PERICENTER":"75.7170","APOAPSIS":"548.310","RCS_SIZE":"LARGE","LAUNCH_DATE":"2021-05-15","TLE_LINE2":"2 48593  53.0555 341.7276 0001518  75.7170 284.3988 15.06385143 52865","PERIAPSIS":"546.208","SITE":"AFETR","EPHEMERIS_TYPE":"0","COUNTRY_CODE":"US","MEAN_MOTION_DOT":"0.00000486","DECAY_DATE":null,"TLE_LINE1":"1 48593U 21041AS  22121.83694036  .00000486  00000-0  51527-4 0  9996","REV_AT_EPOCH":"5286","ECCENTRICITY":"0.00015180","CENTER_NAME":"EARTH","OBJECT_TYPE":"PAYLOAD","MEAN_ANOMALY":"284.3988","FILE":"3424759","REF_FRAME":"TEME","MEAN_MOTION_DDOT":"0.0000000000000","OBJECT_NAME":"STARLINK-2250","INCLINATION":"53.0555","GP_ID":"202473281","OBJECT_ID":"2021-041AS"},{"BSTAR":"0.00002805800000","RA_OF_ASC_NODE":"311.3521","RCS_SIZE":"LARGE","APOAPSIS":"548.246","ARG_OF_PERICENTER":"93.7936","TIME_SYSTEM":"UTC","SEMIMAJOR_AXIS":"6925.367","MEAN_ELEMENT_THEORY":"SGP4","MEAN_MOTION":"15.06394045","NORAD_CAT_ID":"48594","PERIOD":"95.593","ELEMENT_SET_NO":"999","CLASSIFICATION_TYPE":"U","EPOCH":"2022-05-01T22:00:01.999584","INCLINATION":"53.0543","OBJECT_NAME":"STARLINK-2251","MEAN_MOTION_DDOT":"0.0000000000000","OBJECT_ID":"2021-041AT","GP_ID":"202474030","MEAN_ANOMALY":"229.1896","OBJECT_TYPE":"PAYLOAD","CENTER_NAME":"EARTH","ECCENTRICITY":"0.00014640","REV_AT_EPOCH":"361","REF_FRAME":"TEME","FILE":"3424759","MEAN_MOTION_DOT":"0.00000136","TLE_LINE1":"1 48594U 21041AT  22121.91668981  .00000136  00000-0  28058-4 0  9991","DECAY_DATE":null,"LAUNCH_DATE":"2021-05-15","EPHEMERIS_TYPE":"0","COUNTRY_CODE":"US","SITE":"AFETR","PERIAPSIS":"546.218","TLE_LINE2":"2 48594  53.0543 311.3521 0001464  93.7936 229.1896 15.06394045  3614"},{"OBJECT_TYPE":"PAYLOAD","MEAN_ANOMALY":"281.8395","CENTER_NAME":"EARTH","ECCENTRICITY":"0.00014650","REV_AT_EPOCH":"5414","REF_FRAME":"TEME","FILE":"3424759","INCLINATION":"53.0560","OBJECT_NAME":"STARLINK-2252","MEAN_MOTION_DDOT":"0.0000000000000","OBJECT_ID":"2021-041AU","GP_ID":"202474273","LAUNCH_DATE":"2021-05-15","COUNTRY_CODE":"US","EPHEMERIS_TYPE":"0","SITE":"AFETR","PERIAPSIS":"546.251","TLE_LINE2":"2 48595  53.0560 341.5049 0001465  78.2758 281.8395 15.06383150 54143","MEAN_MOTION_DOT":"0.00001289","TLE_LINE1":"1 48595U 21041AU  22121.88486286  .00001289  00000-0  10544-3 0  9994","DECAY_DATE":null,"SEMIMAJOR_AXIS":"6925.400","MEAN_ELEMENT_THEORY":"SGP4","MEAN_MOTION":"15.06383150","BSTAR":"0.00010544000000","RA_OF_ASC_NODE":"341.5049","RCS_SIZE":"LARGE","APOAPSIS":"548.280","TIME_SYSTEM":"UTC","ARG_OF_PERICENTER":"78.2758","CLASSIFICATION_TYPE":"U","EPOCH":"2022-05-01T21:14:12.151104","NORAD_CAT_ID":"48595","PERIOD":"95.593","ELEMENT_SET_NO":"999"},{"INCLINATION":"53.0553","OBJECT_NAME":"STARLINK-2253","MEAN_MOTION_DDOT":"0.0000000000000","OBJECT_ID":"2021-041AV","GP_ID":"202473031","MEAN_ANOMALY":"292.3813","OBJECT_TYPE":"PAYLOAD","CENTER_NAME":"EARTH","ECCENTRICITY":"0.00016410","REV_AT_EPOCH":"5332","REF_FRAME":"TEME","FILE":"3424759","MEAN_MOTION_DOT":"0.00002041","DECAY_DATE":null,"TLE_LINE1":"1 48596U 21041AV  22121.84062167  .00002041  00000-0  15590-3 0  9992","LAUNCH_DATE":"2021-05-15","EPHEMERIS_TYPE":"0","COUNTRY_CODE":"US","SITE":"AFETR","PERIAPSIS":"546.106","TLE_LINE2":"2 48596  53.0553 341.7108 0001641  67.7350 292.3813 15.06390547 53320","BSTAR":"0.00015590000000","RA_OF_ASC_NODE":"341.7108","RCS_SIZE":"LARGE","APOAPSIS":"548.379","ARG_OF_PERICENTER":"67.7350","TIME_SYSTEM":"UTC","SEMIMAJOR_AXIS":"6925.378","MEAN_ELEMENT_THEORY":"SGP4","MEAN_MOTION":"15.06390547","NORAD_CAT_ID":"48596","PERIOD":"95.593","ELEMENT_SET_NO":"999","CLASSIFICATION_TYPE":"U","EPOCH":"2022-05-01T20:10:29.712288"}];
